HORYU-4                 
1 41340U 16012D   19314.31346743  .00000460  00000-0  28147-4 0  9997
2 41340  31.0054 293.5572 0013988 124.3785 235.8175 15.01354154204768
E-ST@R-II               
1 41459U 16025D   19314.75391448  .00001477  00000-0  79271-4 0  9995
2 41459  98.0978  48.5558 0166036 230.5089 128.1401 15.05773495194377
AAUSAT 4                
1 41460U 16025E   19314.74243532  .00003201  00000-0  16227-3 0  9994
2 41460  98.0962  50.1688 0155848 221.7787 137.1486 15.07805306194520
DIWATA-1                
1 41463U 98067HT  19314.78881362  .00040538  00000-0  13724-3 0  9999
2 41463  51.6274 209.7504 0002360 116.5392 350.7156 15.89501947202785
BEESAT-4                
1 41619U 16040W   19314.88849157  .00001307  00000-0  57747-4 0  9995
2 41619  97.3513  14.2963 0010021 227.0566 132.9831 15.23447076175962
CANX-7                  
1 41788U 16059F   19314.86015621  .00005522  00000-0  81553-3 0  9995
2 41788  98.2454  32.7740 0025578 263.3910  96.4411 14.75459907167400
RAVAN                   
1 41849U 16067B   19314.71474366  .00000801  00000-0  72396-4 0  9992
2 41849  97.9273  56.0416 0006459 252.5185 107.5331 14.98364859163714
CELTEE 1                
1 41850U 16067C   19314.71492271  .00000080  00000-0  12245-4 0  9995
2 41850  97.9221  54.3799 0007155 259.0681 100.9735 14.97078993163626
OPTICUBE 04             
1 41851U 16067D   19314.74358745  .00000075  00000-0  11840-4 0  9990
2 41851  97.9200  54.1375 0007706 260.0578  99.9774 14.96846671163615
AEROCUBE 8D             
1 41852U 16067E   19314.75402386  .00000552  00000-0  53501-4 0  9993
2 41852  97.9212  53.9742 0008263 259.3650 100.6641 14.96784031163596
AEROCUBE 8C             
1 41853U 16067F   19314.51297648  .00000170  00000-0  20160-4 0  9992
2 41853  97.9219  53.6549 0008401 263.6758  96.3506 14.96754947163557
PROMETHEUS 2-1          
1 41854U 16067G   19314.72521624 -.00000187  00000-0 -10941-4 0  9996
2 41854  97.9225  54.0728 0009007 262.3938  97.6260 14.97005802163593
PROMETHEUS 2-3          
1 41855U 16067H   19314.72699526 -.00000173  00000-0 -96846-5 0  9998
2 41855  97.9226  54.0964 0009239 262.9296  97.0875 14.97011879163594
INS-1B                  
1 41954U 17008G   19314.85717009  .00001219  00000-0  52829-4 0  9997
2 41954  97.3845  17.8888 0009094   5.6223 354.5115 15.24251348151917
BGUSAT                  
1 41999U 17008BD  19314.49645826  .00002117  00000-0  83565-4 0  9992
2 41999  97.3933  20.5438 0008357  19.8591 340.2972 15.26615135151386
DIDO-2                  
1 42000U 17008BE  19314.85455861  .00000863  00000-0  38389-4 0  9994
2 42000  97.3856  18.4366 0008997  24.4558 335.7104 15.24115061151315
PEASSS                  
1 42015U 17008BV  19314.85564355  .00001098  00000-0  46674-4 0  9996
2 42015  97.3869  19.6288 0007035  32.1414 328.0252 15.25135559151875
AL-FARABI 1             
1 42016U 17008BW  19314.85687398  .00001412  00000-0  57979-4 0  9990
2 42016  97.3887  20.3473 0006876  31.5744 328.5906 15.25842190152038
NAYIF-1 (EO-88)         
1 42017U 17008BX  19314.90668269  .00001410  00000-0  57829-4 0  9995
2 42017  97.3883  20.4076 0006877  31.4724 328.6925 15.25878732152069
ALTAIR PATHFINDER       
1 42711U 98067LS  19314.88376883  .00195965  27621-4  34333-3 0  9990
2 42711  51.6277 249.1075 0003893 116.7453 243.3956 16.01661121142153
NSIGHT                  
1 42726U 98067MF  19314.95701825  .00037683  00000-0  21475-3 0  9995
2 42726  51.6322 282.4949 0005258  44.0254 316.1165 15.78534065140708
UCLSAT                  
1 42765U 17036A   19314.88343993  .00001193  00000-0  53554-4 0  9996
2 42765  97.3339   9.6684 0013091  81.1409 279.1310 15.23023631133152
LITUANICASAT-2          
1 42768U 17036D   19314.84988368  .00001863  00000-0  81319-4 0  9990
2 42768  97.3381   9.3382 0016514  72.3165 287.9873 15.23254513132401
AALTO-1                 
1 42775U 17036L   19314.94930848  .00000711  00000-0  34505-4 0  9995
2 42775  97.3319   8.1344 0015555  73.1259 287.1682 15.21522571132299
URSA MAIOR              
1 42776U 17036M   19314.83100435  .00000786  00000-0  37692-4 0  9997
2 42776  97.3329   8.2162 0015372  73.4270 286.8653 15.21672188132286
COMPASS 2               
1 42777U 17036N   19314.86255425  .00001541  00000-0  67810-4 0  9996
2 42777  97.3376   9.8159 0014027  73.6077 286.6701 15.23263078132362
DIAMOND RED             
1 42783U 17036U   19314.91655832  .00000932  00000-0  43181-4 0  9993
2 42783  97.3339   9.1799 0013790  82.2743 278.0058 15.22429768132340
PEGASUS                 
1 42784U 17036V   19314.93225638  .00001043  00000-0  47537-4 0  9996
2 42784  97.3343   9.4881 0013670  81.5377 278.7409 15.22754505132362
DIAMOND GREEN           
1 42785U 17036W   19314.84968313  .00000952  00000-0  44052-4 0  9998
2 42785  97.3341   9.1430 0013717  83.0773 277.2024 15.22429600132404
DIAMOND BLUE            
1 42786U 17036X   19314.58593634  .00000947  00000-0  43829-4 0  9995
2 42786  97.3342   8.8826 0013555  84.1674 276.1107 15.22429256132365
NUDTSAT                 
1 42787U 17036Y   19314.96477534  .00001647  00000-0  71095-4 0  9992
2 42787  97.3373  10.4562 0013157  76.8650 283.4054 15.23847707132263
SUCHAI                  
1 42788U 17036Z   19314.83224573  .00001287  00000-0  57207-4 0  9991
2 42788  97.3348   9.7928 0013208  81.0376 279.2355 15.23217141132443
SKCUBE                  
1 42789U 17036AA  19314.92402347  .00001157  00000-0  51927-4 0  9998
2 42789  97.3344   9.7947 0013089  80.8643 279.4074 15.23096799132378
VZLUSAT-1               
1 42790U 17036AB  19314.82080349  .00001610  00000-0  69585-4 0  9996
2 42790  97.3363  10.3115 0012609  80.2335 280.0326 15.23834984132391
ROBUSTA-1B              
1 42792U 17036AD  19314.64141975  .00001192  00000-0  53140-4 0  9996
2 42792  97.3346   9.7045 0012693  82.3223 277.9455 15.23274788132354
CICERO 6                
1 42793U 17036AE  19314.87436567  .00000794  00000-0  36898-4 0  9994
2 42793  97.3326   9.5899 0011963  83.4060 276.8538 15.22781973132446
D-SAT                   
1 42794U 17036AF  19314.88890765  .00000180  00000-0  20935-4 0  9994
2 42794  97.5228 353.0725 0126854  18.3162 342.2563 14.91164756129970
CORVUS BC2              
1 42846U 17042X   19314.94408883 -.00000021  00000-0  31795-5 0  9994
2 42846  97.5469 203.0016 0008201 295.3266  64.7103 14.92022623126676
CORVUS BC1              
1 42847U 17042Y   19314.82050155  .00000084  00000-0  13541-4 0  9993
2 42847  97.5471 203.0139 0007848 295.2272  64.8134 14.92123014126657
MIRATA                  
1 43015U 17073C   19314.79618068  .00001421  00000-0  11482-3 0  9991
2 43015  97.7186 230.3595 0255783  45.0710 317.0944 14.79210739106746
MAKERSAT 0              
1 43016U 17073D   19314.29577660  .00001017  00000-0  83618-4 0  9991
2 43016  97.7221 230.0815 0258149  47.2896 314.9739 14.78900978106666
ASTERIA                 
1 43020U 98067NH  19314.41390450  .00039876  00000-0  23421-3 0  9991
2 43020  51.6399 297.2032 0002189  28.3701 331.7419 15.77843919112646
DELLINGR (RBLE)         
1 43021U 98067NJ  19314.48857129  .00010002  00000-0  10327-3 0  9991
2 43021  51.6374 319.3619 0001617 330.1637  29.9266 15.65475571112350
AEROCUBE 7B (OCSD B)    
1 43042U 17071F   19314.78265954  .00004038  00000-0  10256-3 0  9995
2 43042  51.6386  63.1849 0004233 328.0372  32.0356 15.42026179108467
AEROCUBE 7C (OCSD C)    
1 43043U 17071G   19314.78279911  .00003630  00000-0  93222-4 0  9996
2 43043  51.6389  63.2007 0004492 332.5767  27.4980 15.42013607108433
CHEFSAT                 
1 43044U 17071H   19314.88993711  .00006238  00000-0  13753-3 0  9996
2 43044  51.6401  54.3376 0004416 332.0638  28.0111 15.45291048108564
ASGARDIA 1              
1 43049U 17071N   19314.91785675  .00003570  00000-0  91459-4 0  9999
2 43049  51.6397  61.8974 0002213 356.7262   3.3708 15.42134150108463
ISARA                   
1 43050U 17071P   19314.69538057  .00006400  00000-0  14362-3 0  9998
2 43050  51.6383  56.7225 0002103 350.4195   9.6751 15.44710689108518
PROPCUBE 2 (FAUNA)      
1 43052U 17071R   19314.70081938  .00003798  00000-0  95650-4 0  9990
2 43052  51.6393  61.9673 0002098 351.7374   8.3577 15.42468516108432
CORVUS BC3              
1 43118U 18004H   19314.87987331  .00000726  00000-0  33846-4 0  9997
2 43118  97.4720  21.6474 0012052 101.7259 258.5331 15.23034030101579
MICROMAS-2A             
1 43131U 18004W   19314.88718409  .00001689  00000-0  71535-4 0  9997
2 43131  97.4753  22.6992 0010954 102.3324 257.9140 15.24528526101632
SPACEBEE-4              
1 43139U 18004AE  19314.88790845  .00002480  00000-0  10062-3 0  9996
2 43139  97.4780  23.4171 0010381 104.5770 255.6620 15.25529846101670
SPACEBEE-3              
1 43140U 18004AF  19314.87735653  .00003095  00000-0  12246-3 0  9992
2 43140  97.4790  23.7961 0010132 104.2559 255.9805 15.26178657101690
SPACEBEE-2              
1 43141U 18004AG  19314.89468281  .00003209  00000-0  12602-3 0  9998
2 43141  97.4801  23.9493 0010078 103.7867 256.4493 15.26402094101707
SPACEBEE-1              
1 43142U 18004AH  19314.90579525  .00003447  00000-0  13417-3 0  9994
2 43142  97.4802  24.1110 0010046 103.8339 256.4018 15.26653119101707
CICERO 7                
1 43143U 18004AJ  19314.89927213  .00001648  00000-0  69665-4 0  9992
2 43143  97.4735  22.9226 0009073 109.7752 250.4465 15.24634711101658
GOMX-4B                 
1 43196U 18015E   19314.48246841  .00000355  00000-0  17520-4 0  9995
2 43196  97.4103  80.1620 0019032 154.5029 205.7144 15.24060083 98398
GOMX-4A                 
1 43197U 18015F   19314.86641444  .00000633  00000-0  28825-4 0  9995
2 43197  97.4098  80.5803 0019916 152.7647 306.3097 15.24185629 98463
1KUNS-PF                
1 43466U 98067NP  19314.45748516  .00028704  00000-0  21469-3 0  9997
2 43466  51.6347 316.8224 0002531  38.5268 321.5911 15.72438843 85640
